[
    {
        "Altitude(m)": 617710.7041085107,
        "Argument of Periapsis(deg)": 0.0,
        "Eccentricity": 0.0,
        "Inclination(deg)": 60.0,
        "Latitude(deg)": -41.10283461430402,
        "Longitude(deg)": -70.03331834773084,
        "Mean Anomaly(deg)": -49.09089999999996,
        "RAAN(deg)": 60.0,
        "Satellite Name": "Test1 283",
        "Satellite Number": 283,
        "Semi-Major Axis(m)": 6980739.136638005,
        "Time(s)": 0
    },
    {
        "Altitude(m)": 617518.0022551107,
        "Argument of Periapsis(deg)": 0.00010418945913296404,
        "Eccentricity": 0.0,
        "Inclination(deg)": 60.0,
        "Latitude(deg)": -40.63704106261282,
        "Longitude(deg)": -69.53652429471946,
        "Mean Anomaly(deg)": -48.470793854538066,
        "RAAN(deg)": 59.99957995086026,
        "Satellite Name": "Test1 283",
        "Satellite Number": 283,
        "Semi-Major Axis(m)": 6980739.136638005,
        "Time(s)": 10
    }
]